[{"OBJECT_NAME":"STARLINK-2564","OBJECT_ID":"2021-036J","EPOCH":"2026-03-09T09:42:02.625984","MEAN_MOTION":15.30187265,"ECCENTRICITY":0.00015457,"INCLINATION":53.1593,"RA_OF_ASC_NODE":77.1004,"ARG_OF_PERICENTER":91.2892,"MEAN_ANOMALY":268.8285,"EPHEMERIS_TYPE":0,"CLASSIFICATION_TYPE":"U","NORAD_CAT_ID":48284,"ELEMENT_SET_NO":999,"REV_AT_EPOCH":26835,"BSTAR":-7.3525621e-5,"MEAN_MOTION_DOT":-2.535e-5,"MEAN_MOTION_DDOT":0},{"OBJECT_NAME":"EOSSAT-1","OBJECT_ID":"2023-001AW","EPOCH":"2026-03-09T17:40:07.010400","MEAN_MOTION":15.32339828,"ECCENTRICITY":0.00112629,"INCLINATION":97.3357,"RA_OF_ASC_NODE":130.2294,"ARG_OF_PERICENTER":110.3168,"MEAN_ANOMALY":249.9285,"EPHEMERIS_TYPE":0,"CLASSIFICATION_TYPE":"U","NORAD_CAT_ID":55053,"ELEMENT_SET_NO":999,"REV_AT_EPOCH":17668,"BSTAR":0.00024844399,"MEAN_MOTION_DOT":7.695e-5,"MEAN_MOTION_DDOT":0}]
